CCSDS_OMM_VERS = 2.0
CREATION_DATE  = 
ORIGINATOR     = 

OBJECT_NAME    = SL-16 R/B
OBJECT_ID      = 1998-043G
CENTER_NAME    = EARTH
REF_FRAME      = TEME
TIME_SYSTEM    = UTC
MEAN_ELEMENT_THEORY = SGP/SGP4

EPOCH          = 2026-01-17T07:14:16.700352
MEAN_MOTION    = 14.26034962
ECCENTRICITY   = .00101627
INCLINATION    = 98.8173
RA_OF_ASC_NODE = 330.3277
ARG_OF_PERICENTER = 157.8574
MEAN_ANOMALY   = 202.3047

EPHEMERIS_TYPE = 0
CLASSIFICATION_TYPE = U
NORAD_CAT_ID   = 25400
ELEMENT_SET_NO = 999
REV_AT_EPOCH   = 43166
BSTAR          = .34070773E-4
MEAN_MOTION_DOT = .36E-6
MEAN_MOTION_DDOT = 0

CCSDS_OMM_VERS = 2.0
CREATION_DATE  = 
ORIGINATOR     = 

OBJECT_NAME    = SL-16 R/B
OBJECT_ID      = 1998-045B
CENTER_NAME    = EARTH
REF_FRAME      = TEME
TIME_SYSTEM    = UTC
MEAN_ELEMENT_THEORY = SGP/SGP4

EPOCH          = 2026-01-17T03:39:09.581472
MEAN_MOTION    = 14.16181152
ECCENTRICITY   = .00052989
INCLINATION    = 71.0117
RA_OF_ASC_NODE = 289.9562
ARG_OF_PERICENTER = 110.8960
MEAN_ANOMALY   = 249.2731

EPHEMERIS_TYPE = 0
CLASSIFICATION_TYPE = U
NORAD_CAT_ID   = 25407
ELEMENT_SET_NO = 999
REV_AT_EPOCH   = 41980
BSTAR          = .14129329E-3
MEAN_MOTION_DOT = .232E-5
MEAN_MOTION_DDOT = 0

CCSDS_OMM_VERS = 2.0
CREATION_DATE  = 
ORIGINATOR     = 

OBJECT_NAME    = ISS (ZARYA)
OBJECT_ID      = 1998-067A
CENTER_NAME    = EARTH
REF_FRAME      = TEME
TIME_SYSTEM    = UTC
MEAN_ELEMENT_THEORY = SGP/SGP4

EPOCH          = 2026-01-17T04:59:43.096416
MEAN_MOTION    = 15.49346231
ECCENTRICITY   = .00078063
INCLINATION    = 51.6336
RA_OF_ASC_NODE = 326.8848
ARG_OF_PERICENTER = 27.6188
MEAN_ANOMALY   = 332.5214

EPHEMERIS_TYPE = 0
CLASSIFICATION_TYPE = U
NORAD_CAT_ID   = 25544
ELEMENT_SET_NO = 999
REV_AT_EPOCH   = 54835
BSTAR          = .22834529E-3
MEAN_MOTION_DOT = .12311E-3
MEAN_MOTION_DDOT = 0

CCSDS_OMM_VERS = 2.0
CREATION_DATE  = 
ORIGINATOR     = 

OBJECT_NAME    = CZ-4B R/B
OBJECT_ID      = 1999-025C
CENTER_NAME    = EARTH
REF_FRAME      = TEME
TIME_SYSTEM    = UTC
MEAN_ELEMENT_THEORY = SGP/SGP4

EPOCH          = 2026-01-17T03:59:35.200032
MEAN_MOTION    = 14.18252679
ECCENTRICITY   = .00378978
INCLINATION    = 98.6720
RA_OF_ASC_NODE = 62.6456
ARG_OF_PERICENTER = 132.1591
MEAN_ANOMALY   = 296.4854

EPHEMERIS_TYPE = 0
CLASSIFICATION_TYPE = U
NORAD_CAT_ID   = 25732
ELEMENT_SET_NO = 999
REV_AT_EPOCH   = 38086
BSTAR          = .47876075E-4
MEAN_MOTION_DOT = .56E-6
MEAN_MOTION_DDOT = 0

CCSDS_OMM_VERS = 2.0
CREATION_DATE  = 
ORIGINATOR     = 

OBJECT_NAME    = OKEAN-O
OBJECT_ID      = 1999-039A
CENTER_NAME    = EARTH
REF_FRAME      = TEME
TIME_SYSTEM    = UTC
MEAN_ELEMENT_THEORY = SGP/SGP4

EPOCH          = 2026-01-17T03:27:40.901760
MEAN_MOTION    = 14.80230802
ECCENTRICITY   = .00017304
INCLINATION    = 97.9549
RA_OF_ASC_NODE = 77.5315
ARG_OF_PERICENTER = 106.1220
MEAN_ANOMALY   = 254.0182

EPHEMERIS_TYPE = 0
CLASSIFICATION_TYPE = U
NORAD_CAT_ID   = 25860
ELEMENT_SET_NO = 999
REV_AT_EPOCH   = 42676
BSTAR          = .9186466E-4
MEAN_MOTION_DOT = .646E-5
MEAN_MOTION_DDOT = 0

CCSDS_OMM_VERS = 2.0
CREATION_DATE  = 
ORIGINATOR     = 

OBJECT_NAME    = SL-16 R/B
OBJECT_ID      = 1999-039B
CENTER_NAME    = EARTH
REF_FRAME      = TEME
TIME_SYSTEM    = UTC
MEAN_ELEMENT_THEORY = SGP/SGP4

EPOCH          = 2026-01-17T04:09:02.435040
MEAN_MOTION    = 14.81644098
ECCENTRICITY   = .00160433
INCLINATION    = 98.0073
RA_OF_ASC_NODE = 76.3179
ARG_OF_PERICENTER = 66.9459
MEAN_ANOMALY   = 293.3443

EPHEMERIS_TYPE = 0
CLASSIFICATION_TYPE = U
NORAD_CAT_ID   = 25861
ELEMENT_SET_NO = 999
REV_AT_EPOCH   = 42923
BSTAR          = .6939287E-4
MEAN_MOTION_DOT = .493E-5
MEAN_MOTION_DDOT = 0

CCSDS_OMM_VERS = 2.0
CREATION_DATE  = 
ORIGINATOR     = 

OBJECT_NAME    = DELTA 2 R/B
OBJECT_ID      = 1999-041E
CENTER_NAME    = EARTH
REF_FRAME      = TEME
TIME_SYSTEM    = UTC
MEAN_ELEMENT_THEORY = SGP/SGP4

EPOCH          = 2026-01-17T07:52:31.476576
MEAN_MOTION    = 14.11564576
ECCENTRICITY   = .05034827
INCLINATION    = 51.7619
RA_OF_ASC_NODE = 146.3688
ARG_OF_PERICENTER = 196.6924
MEAN_ANOMALY   = 161.6896

EPHEMERIS_TYPE = 0
CLASSIFICATION_TYPE = U
NORAD_CAT_ID   = 25876
ELEMENT_SET_NO = 999
REV_AT_EPOCH   = 35577
BSTAR          = .459425E-3
MEAN_MOTION_DOT = .2623E-4
MEAN_MOTION_DDOT = 0

CCSDS_OMM_VERS = 2.0
CREATION_DATE  = 
ORIGINATOR     = 

OBJECT_NAME    = HELIOS 1B
OBJECT_ID      = 1999-064A
CENTER_NAME    = EARTH
REF_FRAME      = TEME
TIME_SYSTEM    = UTC
MEAN_ELEMENT_THEORY = SGP/SGP4

EPOCH          = 2026-01-17T06:09:50.175072
MEAN_MOTION    = 14.87446850
ECCENTRICITY   = .00007242
INCLINATION    = 98.1747
RA_OF_ASC_NODE = 277.9778
ARG_OF_PERICENTER = 134.4153
MEAN_ANOMALY   = 225.7122

EPHEMERIS_TYPE = 0
CLASSIFICATION_TYPE = U
NORAD_CAT_ID   = 25977
ELEMENT_SET_NO = 999
REV_AT_EPOCH   = 67761
BSTAR          = .1774738E-3
MEAN_MOTION_DOT = .1548E-4
MEAN_MOTION_DDOT = 0

CCSDS_OMM_VERS = 2.0
CREATION_DATE  = 
ORIGINATOR     = 

OBJECT_NAME    = TERRA
OBJECT_ID      = 1999-068A
CENTER_NAME    = EARTH
REF_FRAME      = TEME
TIME_SYSTEM    = UTC
MEAN_ELEMENT_THEORY = SGP/SGP4

EPOCH          = 2026-01-17T06:45:16.492032
MEAN_MOTION    = 14.60946689
ECCENTRICITY   = .00022046
INCLINATION    = 97.9696
RA_OF_ASC_NODE = 72.6527
ARG_OF_PERICENTER = 17.9451
MEAN_ANOMALY   = 46.4958

EPHEMERIS_TYPE = 0
CLASSIFICATION_TYPE = U
NORAD_CAT_ID   = 25994
ELEMENT_SET_NO = 999
REV_AT_EPOCH   = 38757
BSTAR          = .91851449E-4
MEAN_MOTION_DOT = .405E-5
MEAN_MOTION_DDOT = 0

CCSDS_OMM_VERS = 2.0
CREATION_DATE  = 
ORIGINATOR     = 

OBJECT_NAME    = SL-16 R/B
OBJECT_ID      = 2000-006B
CENTER_NAME    = EARTH
REF_FRAME      = TEME
TIME_SYSTEM    = UTC
MEAN_ELEMENT_THEORY = SGP/SGP4

EPOCH          = 2026-01-17T05:23:44.662272
MEAN_MOTION    = 14.15812790
ECCENTRICITY   = .0018908
INCLINATION    = 71.0001
RA_OF_ASC_NODE = 206.0468
ARG_OF_PERICENTER = 261.0187
MEAN_ANOMALY   = 98.8795

EPHEMERIS_TYPE = 0
CLASSIFICATION_TYPE = U
NORAD_CAT_ID   = 26070
ELEMENT_SET_NO = 999
REV_AT_EPOCH   = 34127
BSTAR          = -.1016242E-3
MEAN_MOTION_DOT = -.248E-5
MEAN_MOTION_DDOT = 0

CCSDS_OMM_VERS = 2.0
CREATION_DATE  = 
ORIGINATOR     = 

OBJECT_NAME    = TITAN 4B R/B
OBJECT_ID      = 2000-047B
CENTER_NAME    = EARTH
REF_FRAME      = TEME
TIME_SYSTEM    = UTC
MEAN_ELEMENT_THEORY = SGP/SGP4

EPOCH          = 2026-01-17T06:32:13.702848
MEAN_MOTION    = 15.09065239
ECCENTRICITY   = .00369044
INCLINATION    = 67.9874
RA_OF_ASC_NODE = 185.0399
ARG_OF_PERICENTER = 100.4056
MEAN_ANOMALY   = 260.1255

EPHEMERIS_TYPE = 0
CLASSIFICATION_TYPE = U
NORAD_CAT_ID   = 26474
ELEMENT_SET_NO = 999
REV_AT_EPOCH   = 38515
BSTAR          = .22278594E-3
MEAN_MOTION_DOT = .3457E-4
MEAN_MOTION_DDOT = 0

CCSDS_OMM_VERS = 2.0
CREATION_DATE  = 
ORIGINATOR     = 

OBJECT_NAME    = ENVISAT
OBJECT_ID      = 2002-009A
CENTER_NAME    = EARTH
REF_FRAME      = TEME
TIME_SYSTEM    = UTC
MEAN_ELEMENT_THEORY = SGP/SGP4

EPOCH          = 2026-01-17T07:37:10.183008
MEAN_MOTION    = 14.39013972
ECCENTRICITY   = .00011687
INCLINATION    = 98.3647
RA_OF_ASC_NODE = 332.1655
ARG_OF_PERICENTER = 91.6435
MEAN_ANOMALY   = 72.2859

EPHEMERIS_TYPE = 0
CLASSIFICATION_TYPE = U
NORAD_CAT_ID   = 27386
ELEMENT_SET_NO = 999
REV_AT_EPOCH   = 25178
BSTAR          = .42491818E-4
MEAN_MOTION_DOT = .88E-6
MEAN_MOTION_DDOT = 0

