SL-16 R/B               
1 25400U 98043G   26017.30158218  .00000036  00000+0  34071-4 0  9996
2 25400  98.8173 330.3277 0010162 157.8574 202.3047 14.26034962431666
SL-16 R/B               
1 25407U 98045B   26017.15219423  .00000232  00000+0  14129-3 0  9993
2 25407  71.0117 289.9562 0005298 110.8960 249.2731 14.16181152419807
ISS (ZARYA)             
1 25544U 98067A   26017.20813769  .00012311  00000+0  22835-3 0  9992
2 25544  51.6336 326.8848 0007806  27.6188 332.5214 15.49346231548351
CZ-4B R/B               
1 25732U 99025C   26017.16637963  .00000056  00000+0  47876-4 0  9997
2 25732  98.6720  62.6456 0037897 132.1591 296.4854 14.18252679380866
OKEAN-O                 
1 25860U 99039A   26017.14422340  .00000646  00000+0  91865-4 0  9995
2 25860  97.9549  77.5315 0001730 106.1220 254.0182 14.80230802426762
SL-16 R/B               
1 25861U 99039B   26017.17294485  .00000493  00000+0  69393-4 0  9997
2 25861  98.0073  76.3179 0016043  66.9459 293.3443 14.81644098429230
DELTA 2 R/B             
1 25876U 99041E   26017.32814209  .00002623  00000+0  45943-3 0  9996
2 25876  51.7619 146.3688 0503482 196.6924 161.6896 14.11564576355778
HELIOS 1B               
1 25977U 99064A   26017.25683073  .00001548  00000+0  17747-3 0  9994
2 25977  98.1747 277.9778 0000724 134.4153 225.7122 14.87446850677614
TERRA                   
1 25994U 99068A   26017.28144088  .00000405  00000+0  91851-4 0  9998
2 25994  97.9696  72.6527 0002204  17.9451  46.4958 14.60946689387570
SL-16 R/B               
1 26070U 00006B   26017.22482248 -.00000248  00000+0 -10162-3 0  9997
2 26070  71.0001 206.0468 0018908 261.0187  98.8795 14.15812790341274
TITAN 4B R/B            
1 26474U 00047B   26017.27238082  .00003457  00000+0  22279-3 0  9995
2 26474  67.9874 185.0399 0036904 100.4056 260.1255 15.09065239385152
ENVISAT                 
1 27386U 02009A   26017.31747897  .00000088  00000+0  42492-4 0  9999
2 27386  98.3647 332.1655 0001168  91.6435  72.2859 14.39013972251789
